NORAD_CAT_ID,OBJECT_NAME,OBJECT_TYPE,EPOCH,MEAN_MOTION,ECCENTRICITY,INCLINATION,RA_OF_ASC_NODE,ARG_OF_PERICENTER,MEAN_ANOMALY,BSTAR,MEAN_MOTION_DOT,MEAN_MOTION_DDOT,TLE_LINE0,TLE_LINE1,TLE_LINE2,SEMIMAJOR_AXIS,PERIOD,APOGEE,PERIGEE,DECAYED
53535.0,STARLINK-4138,PAYLOAD,2023-07-11 03:00:04,15.08838776,0.0001068,53.2165,120.1305,82.5919,277.5194,6.29e-05,7.13e-06,0.0,0 STARLINK-4138,1 53535U 22101J   23192.12505658  .00000713  00000-0  62900-4 0  9998,2 53535  53.2165 120.1305 0001068  82.5919 277.5194 15.08838776 49344,6917.884,95.438,540.488,539.01,0.0
53535.0,STARLINK-4138,PAYLOAD,2023-07-12 04:26:14,15.08850458,0.0001101,53.2168,115.3732,79.9696,280.1421,9.1275e-05,1.166e-05,0.0,0 STARLINK-4138,1 53535U 22101J   23193.18488708  .00001166  00000-0  91275-4 0  9991,2 53535  53.2168 115.3732 0001101  79.9696 280.1421 15.08850458 49509,6917.848,95.437,540.475,538.952,0.0
53535.0,STARLINK-4138,PAYLOAD,2023-07-13 01:06:15,15.08854399,0.0001253,53.2179,111.5067,108.8309,251.2819,-0.00011432,-2.108e-05,0.0,0 STARLINK-4138,1 53535U 22101J   23194.04601020 -.00002108  00000-0 -11432-3 0  9996,2 53535  53.2179 111.5067 0001253 108.8309 251.2819 15.08854399 49633,6917.836,95.437,540.568,538.835,0.0
53535.0,STARLINK-4138,PAYLOAD,2023-07-13 21:46:17,15.08832592,0.0001201,53.2169,107.6405,102.5637,257.5489,-0.00011194,-2.069e-05,0.0,0 STARLINK-4138,1 53535U 22101J   23194.90714439 -.00002069  00000-0 -11194-3 0  9991,2 53535  53.2169 107.6405 0001201 102.5637 257.5489 15.08832592 49769,6917.903,95.438,540.599,538.937,0.0
53535.0,STARLINK-4138,PAYLOAD,2023-07-14 18:26:17,15.08839829,0.0001021,53.2167,103.7768,88.7483,271.3626,8.9797e-05,1.142e-05,0.0,0 STARLINK-4138,1 53535U 22101J   23195.76825422  .00001142  00000-0  89797-4 0  9995,2 53535  53.2167 103.7768 0001021  88.7483 271.3626 15.08839829 49891,6917.881,95.438,540.452,539.04,0.0
53535.0,STARLINK-4138,PAYLOAD,2023-07-15 00:47:48,15.08850315,0.0001038,53.2167,102.5873,89.8958,270.2153,0.00017508,2.5e-05,0.0,0 STARLINK-4138,1 53535U 22101J   23196.03320493  .00002500  00000-0  17508-3 0  9993,2 53535  53.2167 102.5873 0001038  89.8958 270.2153 15.08850315 49933,6917.849,95.437,540.432,538.996,0.0
53535.0,STARLINK-4138,PAYLOAD,2023-07-15 18:17:05,15.08828767,9.83e-05,53.2173,99.3146,78.4231,281.6872,1.2497e-05,-8.9e-07,0.0,0 STARLINK-4138,1 53535U 22101J   23196.76186520 -.00000089  00000-0  12497-4 0  9998,2 53535  53.2173  99.3146 0000983  78.4231 281.6872 15.08828767 50046,6917.915,95.438,540.46,539.1,0.0
53535.0,STARLINK-4138,PAYLOAD,2023-07-16 03:49:23,15.08837927,0.0001075,53.2171,97.5313,100.1118,259.9995,0.00011618,1.562e-05,0.0,0 STARLINK-4138,1 53535U 22101J   23197.15930108  .00001562  00000-0  11618-3 0  9990,2 53535  53.2171  97.5313 0001075 100.1118 259.9995 15.08837927 50109,6917.887,95.438,540.495,539.008,0.0
53535.0,STARLINK-4138,PAYLOAD,2023-07-17 10:01:43,15.08843154,0.0001108,53.2167,91.8817,99.3357,260.7761,2.523e-05,1.14e-06,0.0,0 STARLINK-4138,1 53535U 22101J   23198.41785929  .00000114  00000-0  25230-4 0  9997,2 53535  53.2167  91.8817 0001108  99.3357 260.7761 15.08843154 50291,6917.871,95.437,540.502,538.969,0.0
53535.0,STARLINK-4138,PAYLOAD,2023-07-18 11:27:53,15.08841574,0.0001145,53.2165,87.1239,114.9128,245.1983,0.00016269,2.302e-05,0.0,0 STARLINK-4138,1 53535U 22101J   23199.47770169  .00002302  00000-0  16269-3 0  9996,2 53535  53.2165  87.1239 0001145 114.9128 245.1983 15.08841574 50451,6917.876,95.437,540.533,538.948,0.0
53535.0,STARLINK-4138,PAYLOAD,2023-07-19 17:40:13,15.08843353,0.0001362,53.2163,81.4702,138.3722,221.7374,0.0001526,2.142e-05,0.0,0 STARLINK-4138,1 53535U 22101J   23200.73626337  .00002142  00000-0  15260-3 0  9997,2 53535  53.2163  81.4702 0001362 138.3722 221.7374 15.08843353 50644,6917.87,95.437,540.677,538.793,0.0
53535.0,STARLINK-4138,PAYLOAD,2023-07-20 15:55:37,15.0883931,0.0001054,53.2153,77.31,89.8563,270.255,0.00033957,5.12e-05,0.0,0 STARLINK-4138,1 53535U 22101J   23201.66363023  .00005120  00000-0  33957-3 0  9992,2 53535  53.2153  77.3100 0001054  89.8563 270.2550 15.08839310 50788,6917.882,95.438,540.477,539.018,0.0
53535.0,STARLINK-4138,PAYLOAD,2023-07-21 15:46:24,15.08836885,0.0001087,53.2159,72.8494,90.2008,269.9109,0.00026725,3.968e-05,0.0,0 STARLINK-4138,1 53535U 22101J   23202.65723039  .00003968  00000-0  26725-3 0  9992,2 53535  53.2159  72.8494 0001087  90.2008 269.9109 15.08836885 50932,6917.89,95.438,540.507,539.003,0.0
53535.0,STARLINK-4138,PAYLOAD,2023-07-24 13:43:22,15.08837704,0.0001149,53.2182,59.7645,98.2405,261.8717,0.00012138,1.644e-05,0.0,0 STARLINK-4138,1 53535U 22101J   23205.57179365  .00001644  00000-0  12138-3 0  9995,2 53535  53.2182  59.7645 0001149  98.2405 261.8717 15.08837704 51374,6917.887,95.438,540.547,538.958,0.0
53535.0,STARLINK-4138,PAYLOAD,2023-07-25 13:34:10,15.08838025,0.0001545,53.2153,55.3031,94.9049,265.2119,0.0001428,1.985e-05,0.0,0 STARLINK-4138,1 53535U 22101J   23206.56539607  .00001985  00000-0  14280-3 0  9992,2 53535  53.2153  55.3031 0001545  94.9049 265.2119 15.08838025 51528,6917.886,95.438,540.82,538.683,0.0
53535.0,STARLINK-4138,PAYLOAD,2023-07-26 00:41:51,15.08843001,0.0001082,53.2171,53.2229,96.4526,263.6589,0.00013945,1.932e-05,0.0,0 STARLINK-4138,1 53535U 22101J   23207.02907258  .00001932  00000-0  13945-3 0  9994,2 53535  53.2171  53.2229 0001082  96.4526 263.6589 15.08843001 51597,6917.871,95.437,540.485,538.988,0.0
53535.0,STARLINK-4138,PAYLOAD,2023-07-26 19:46:29,15.08846479,0.0001104,53.217,49.6551,86.3138,273.7981,8.858e-05,1.122e-05,0.0,0 STARLINK-4138,1 53535U 22101J   23207.82394893  .00001122  00000-0  88580-4 0  9996,2 53535  53.2170  49.6551 0001104  86.3138 273.7981 15.08846479 51719,6917.861,95.437,540.489,538.962,0.0
53535.0,STARLINK-4138,PAYLOAD,2023-07-27 08:29:34,15.0883587,0.0001203,53.2153,47.2749,84.8208,275.2921,3.2233e-05,2.25e-06,0.0,0 STARLINK-4138,1 53535U 22101J   23208.35387548  .00000225  00000-0  32233-4 0  9991,2 53535  53.2153  47.2749 0001203  84.8208 275.2921 15.08835870 51796,6917.893,95.438,540.59,538.926,0.0
53535.0,STARLINK-4138,PAYLOAD,2023-07-27 14:51:08,15.08821993,0.0001116,53.216,46.0879,39.9437,320.1637,-4.1648e-06,-3.54e-06,0.0,0 STARLINK-4138,1 53535U 22101J   23208.61884664 -.00000354  00000-0 -41648-5 0  9997,2 53535  53.2160  46.0879 0001116  39.9437 320.1637 15.08821993 51833,6917.935,95.439,540.572,539.028,0.0
53535.0,STARLINK-4138,PAYLOAD,2023-07-27 19:37:17,15.0882961,0.0001019,53.2176,45.1945,87.3266,272.7842,-5.151e-05,-1.107e-05,0.0,0 STARLINK-4138,1 53535U 22101J   23208.81756390 -.00001107  00000-0 -51510-4 0  9998,2 53535  53.2176  45.1945 0001019  87.3266 272.7842 15.08829610 51860,6917.912,95.438,540.482,539.072,0.0
53535.0,STARLINK-4138,PAYLOAD,2023-07-27 22:48:03,15.08834142,0.0001093,53.2169,44.5992,88.1568,271.9549,-1.4293e-05,-5.15e-06,0.0,0 STARLINK-4138,1 53535U 22101J   23208.95004044 -.00000515  00000-0 -14293-4 0  9994,2 53535  53.2169  44.5992 0001093  88.1568 271.9549 15.08834142 51886,6917.898,95.438,540.519,539.007,0.0
53535.0,STARLINK-4138,PAYLOAD,2023-07-28 08:20:21,15.08841008,0.0001067,53.2171,42.8163,82.4525,277.6588,8.941e-06,-1.45e-06,0.0,0 STARLINK-4138,1 53535U 22101J   23209.34747560 -.00000145  00000-0  89410-5 0  9997,2 53535  53.2171  42.8163 0001067  82.4525 277.6588 15.08841008 51943,6917.877,95.437,540.48,539.004,0.0
53535.0,STARLINK-4138,PAYLOAD,2023-07-28 14:41:54,15.08857074,0.0001198,53.217,41.6266,81.3939,278.7189,-0.00012249,-2.238e-05,0.0,0 STARLINK-4138,1 53535U 22101J   23209.61243318 -.00002238  00000-0 -12249-3 0  9999,2 53535  53.2170  41.6266 0001198  81.3939 278.7189 15.08857074 51988,6917.828,95.436,540.522,538.864,0.0
53535.0,STARLINK-4138,PAYLOAD,2023-07-29 19:18:50,15.08843787,0.0001093,53.2172,36.274,74.5092,285.6021,0.00024208,3.567e-05,0.0,0 STARLINK-4138,1 53535U 22101J   23210.80474926  .00003567  00000-0  24208-3 0  9995,2 53535  53.2172  36.2740 0001093  74.5092 285.6021 15.08843787 52164,6917.869,95.437,540.49,538.978,0.0
53535.0,STARLINK-4138,PAYLOAD,2023-07-31 04:41:56,15.08852388,0.0001495,53.2179,30.0301,71.1598,288.9557,-0.00013274,-2.401e-05,0.0,0 STARLINK-4138,1 53535U 22101J   23212.19579045 -.00002401  00000-0 -13274-3 0  9996,2 53535  53.2179  30.0301 0001495  71.1598 288.9557 15.08852388 52376,6917.843,95.437,540.742,538.673,0.0
53535.0,STARLINK-4138,PAYLOAD,2023-07-31 17:25:01,15.08840352,9.78e-05,53.2176,27.65,92.4556,267.6548,-3.901e-05,-9.09e-06,0.0,0 STARLINK-4138,1 53535U 22101J   23212.72571617 -.00000909  00000-0 -39010-4 0  9990,2 53535  53.2176  27.6500 0000978  92.4556 267.6548 15.08840352 52452,6917.879,95.438,540.421,539.068,0.0
53535.0,STARLINK-4138,PAYLOAD,2023-08-01 20:26:34,15.08845258,9.41e-05,53.217,22.5951,95.8646,264.2453,0.00010197,1.336e-05,0.0,0 STARLINK-4138,1 53535U 22101J   23213.85179323  .00001336  00000-0  10197-3 0  9990,2 53535  53.2170  22.5951 0000941  95.8646 264.2453 15.08845258 52624,6917.864,95.437,540.38,539.078,0.0
53535.0,STARLINK-4138,PAYLOAD,2023-08-02 10:45:04,15.08831644,9.78e-05,53.217,19.9189,101.6965,258.4137,0.00032647,4.911e-05,0.0,0 STARLINK-4138,1 53535U 22101J   23214.44796299  .00004911  00000-0  32647-3 0  9999,2 53535  53.2170  19.9189 0000978 101.6965 258.4137 15.08831644 52715,6917.906,95.438,540.448,539.094,0.0
53535.0,STARLINK-4138,PAYLOAD,2023-08-02 18:41:58,15.08847663,9.32e-05,53.217,18.4322,97.9658,262.144,0.0002605,3.861e-05,0.0,0 STARLINK-4138,1 53535U 22101J   23214.77915506  .00003861  00000-0  26050-3 0  9993,2 53535  53.2170  18.4322 0000932  97.9658 262.1440 15.08847663 52766,6917.857,95.437,540.367,539.077,0.0
53535.0,STARLINK-4138,PAYLOAD,2023-08-03 10:35:50,15.08839491,8.85e-05,53.2174,15.4584,95.3442,264.7651,0.00012632,1.723e-05,0.0,0 STARLINK-4138,1 53535U 22101J   23215.44155963  .00001723  00000-0  12632-3 0  9997,2 53535  53.2174  15.4584 0000885  95.3442 264.7651 15.08839491 52860,6917.882,95.438,540.359,539.135,0.0
